[{"OBJECT_NAME":"STARLINK-4155","OBJECT_ID":"2022-076BC","EPOCH":"2026-03-09T06:47:09.432384","MEAN_MOTION":15.08839773,"ECCENTRICITY":0.00013658,"INCLINATION":53.2173,"RA_OF_ASC_NODE":75.9454,"ARG_OF_PERICENTER":87.8147,"MEAN_ANOMALY":272.3001,"EPHEMERIS_TYPE":0,"CLASSIFICATION_TYPE":"U","NORAD_CAT_ID":53036,"ELEMENT_SET_NO":999,"REV_AT_EPOCH":20306,"BSTAR":7.7100144e-5,"MEAN_MOTION_DOT":9.39e-6,"MEAN_MOTION_DDOT":0},{"OBJECT_NAME":"CZ-2D DEB","OBJECT_ID":"2017-060C","EPOCH":"2026-03-09T12:36:22.356864","MEAN_MOTION":15.07716497,"ECCENTRICITY":0.0018685,"INCLINATION":98.2453,"RA_OF_ASC_NODE":267.9231,"ARG_OF_PERICENTER":71.2095,"MEAN_ANOMALY":289.1156,"EPHEMERIS_TYPE":0,"CLASSIFICATION_TYPE":"U","NORAD_CAT_ID":44610,"ELEMENT_SET_NO":999,"REV_AT_EPOCH":45422,"BSTAR":0.00057216024,"MEAN_MOTION_DOT":8.702e-5,"MEAN_MOTION_DDOT":0}]
